STARLINK-30097          
1 56303U 23056T   23130.58334491 -.00759682  00000+0 -15371-1 0  9995
2 56303  43.0030  77.7820 0001377 256.4098 240.3258 15.48039731  1301
STARLINK-30099          
1 56304U 23056U   23130.31559005  .00075824  00000+0  12090-2 0  9990
2 56304  43.0030  79.5458 0002398 233.2596 126.8045 15.52299827  4381
STARLINK-30094          
1 56305U 23056V   23130.58334491 -.00754472  00000+0 -14945-1 0  9995
2 56305  43.0030  77.7718 0001566 262.6914 238.0766 15.48624222  1308
STARLINK-30112          
1 56306U 23056W   23130.58334491 -.00756836  00000+0 -15095-1 0  9999
2 56306  43.0029  77.7759 0001453 258.2726 240.8692 15.48438075  1307
2023-057A               
1 56308U 23057A   23129.70651550  .00002566  00000+0  19977-3 0  9999
2 56308   9.8859 184.8000 0023329  89.3665 270.9248 14.88301431  2591
2023-057B               
1 56309U 23057B   23128.76082037  .00006872  00000+0  54796-3 0  9995
2 56309   9.9879 190.5524 0008565 227.2910 132.6645 14.95129458  2456
TELEOS-2                
1 56310U 23057C   23127.76702314  .00006663  00000+0  53974-3 0  9998
2 56310   9.9830 197.8965 0004294 194.2422 165.6088 14.94454923  2308
ARKSAT 1                
1 56311U 98067VC  23130.32616589  .00044877  00000+0  71774-3 0  9993
2 56311  51.6381 155.9762 0007948 330.6427  29.4116 15.52658219  2470
AURORASAT               
1 56312U 98067VD  23130.26174124  .00078937  00000+0  12434-2 0  9992
2 56312  51.6377 156.2948 0007850 330.8996  29.1556 15.52837458  2492
EX-ALTA-2               
1 56313U 98067VE  23130.32641265  .00065431  00000+0  10378-2 0  9995
2 56313  51.6369 155.9762 0007833 330.5815  29.4734 15.52726907  2499
LIGHTCUBE               
1 56314U 98067VF  23130.52069075  .00069858  00000+0  11065-2 0  9992
2 56314  51.6374 155.0231 0007510 316.2541  43.7853 15.52739728  2550
NEUDOSE                 
1 56315U 98067VG  23130.52332270  .00048952  00000+0  79528-3 0  9994
2 56315  51.6375 155.0410 0007834 313.7971  46.2370 15.52184236  2504
YUKONSAT                
1 56316U 98067VH  23130.52257472  .00056629  00000+0  91171-3 0  9993
2 56316  51.6374 155.0361 0007597 314.2749  45.7617 15.52375713  2526
STARLINK-6038           
1 56317U 23058A   23130.91667824 -.00810333  00000+0 -10712-1 0  9993
2 56317  97.6634 130.7203 0001424  86.7222 320.7709 15.60910316  2421
STARLINK-5954           
1 56318U 23058B   23130.91667824 -.00829882  00000+0 -10820-1 0  9993
2 56318  97.6625 130.7205 0001396  81.8532 326.3994 15.60931341  2421
STARLINK-6039           
1 56319U 23058C   23130.91667824 -.00810070  00000+0 -10695-1 0  9993
2 56319  97.6634 130.7209 0001433  84.2855 324.7111 15.60942135  2429
STARLINK-5988           
1 56320U 23058D   23130.58334491 -.00907681  00000+0 -11638-1 0  9992
2 56320  97.6631 130.3599 0001501 100.0176 236.3591 15.61574856  1303
STARLINK-5876           
1 56321U 23058E   23130.91667824 -.00809621  00000+0 -10675-1 0  9994
2 56321  97.6633 130.7216 0001451  89.7146 320.7577 15.60974688  2422
STARLINK-6033           
1 56322U 23058F   23130.91667824 -.00810121  00000+0 -10706-1 0  9997
2 56322  97.6629 130.7204 0001417  89.0364 318.8524 15.60917434  2428
STARLINK-6035           
1 56323U 23058G   23130.58334491 -.00908033  00000+0 -11628-1 0  9996
2 56323  97.6637 130.3606 0001496 100.3543 237.4560 15.61608050  1307
STARLINK-6034           
1 56324U 23058H   23130.58334491 -.00907788  00000+0 -11632-1 0  9998
2 56324  97.6632 130.3602 0001535 103.9707 233.1223 15.61591206  1307
STARLINK-5981           
1 56325U 23058J   23130.58334491 -.00904334  00000+0 -11563-1 0  9996
2 56325  97.6637 130.3613 0001486 103.8244 235.4252 15.61637382  1308
STARLINK-5980           
1 56326U 23058K   23130.91667824 -.00810337  00000+0 -10692-1 0  9994
2 56326  97.6629 130.7212 0001451  86.5471 323.1882 15.60958701  2428
STARLINK-5997           
1 56327U 23058L   23130.91667824 -.00809631  00000+0 -10655-1 0  9999
2 56327  97.6635 130.7227 0001442  87.5794 325.1073 15.61023724  2424
STARLINK-5992           
1 56328U 23058M   23130.58334491 -.00907668  00000+0 -11612-1 0  9997
2 56328  97.6637 130.3611 0001541 103.9021 234.9915 15.61631823  1309
STARLINK-5984           
1 56329U 23058N   23130.91667824 -.00810802  00000+0 -10674-1 0  9994
2 56329  97.6634 130.7225 0001505  82.9939 329.3246 15.61018282  2424
STARLINK-5967           
1 56330U 23058P   23130.91667824 -.00810756  00000+0 -10688-1 0  9999
2 56330  97.6632 130.7218 0001438  87.4479 323.4003 15.60983262  2424
STARLINK-5991           
1 56331U 23058Q   23130.58334491 -.00904327  00000+0 -11541-1 0  9991
2 56331  97.6638 130.3623 0001477 103.9403 237.4652 15.61686363  1304
STARLINK-5093           
1 56332U 23058R   23130.91667824 -.00811668  00000+0 -10691-1 0  9998
2 56332  97.6638 130.7223 0001447  87.0476 324.9054 15.61007997  2426
STARLINK-5553           
1 56333U 23058S   23130.58334491 -.00905177  00000+0 -11549-1 0  9995
2 56333  97.6643 130.3625 0001455 102.9776 238.7922 15.61695185  1308
STARLINK-5548           
1 56334U 23058T   23130.58334491 -.00909819  00000+0 -11623-1 0  9996
2 56334  97.6633 130.3619 0001479 102.3136 238.3757 15.61674818  2371
STARLINK-5559           
1 56335U 23058U   23130.58334491 -.00920612  00000+0 -11749-1 0  9990
2 56335  97.6640 130.3631 0001466 101.9773 240.8622 15.61730272  1300
STARLINK-5562           
1 56336U 23058V   23130.58334491 -.00913739  00000+0 -11674-1 0  9990
2 56336  97.6638 130.3621 0001540 104.0330 237.0138 15.61682914  2370
STARLINK-5561           
1 56337U 23058W   23130.58334491 -.00920808  00000+0 -11748-1 0  9998
2 56337  97.6645 130.3632 0001485  98.0610 245.1381 15.61738314  1300
STARLINK-5554           
1 56338U 23058X   23130.58334491 -.00917062  00000+0 -11707-1 0  9992
2 56338  97.6639 130.3627 0001527 101.1580 240.9651 15.61712834  1309
STARLINK-5552           
1 56339U 23058Y   23130.58334491 -.00921638  00000+0 -11752-1 0  9997
2 56339  97.6641 130.3636 0001505 100.0042 243.9114 15.61754866  1308
STARLINK-5540           
1 56340U 23058Z   23130.58334491 -.00916239  00000+0 -11692-1 0  9993
2 56340  97.6638 130.3628 0001510 102.1175 240.3685 15.61720675  1308
STARLINK-5543           
1 56341U 23058AA  23130.58334491 -.00920208  00000+0 -11725-1 0  9992
2 56341  97.6647 130.3639 0001476 102.2873 242.3480 15.61770462  1302
STARLINK-5955           
1 56342U 23058AB  23130.58334491 -.00921363  00000+0 -11752-1 0  9996
2 56342  97.6637 130.3633 0001499  98.1756 245.3871 15.61746471  1304
STARLINK-5976           
1 56343U 23058AC  23130.58334491 -.00917801  00000+0 -11684-1 0  9993
2 56343  97.6638 130.3642 0001522  97.4315 247.9237 15.61786334  1302
STARLINK-5974           
1 56344U 23058AD  23130.58334491 -.00921464  00000+0 -11746-1 0  9993
2 56344  97.6637 130.3637 0001524 102.3334 241.9427 15.61762540  1303
STARLINK-5979           
1 56345U 23058AE  23130.58334491 -.00921640  00000+0 -11730-1 0  9993
2 56345  97.6649 130.3646 0001510 101.8744 244.1965 15.61803139  1303
STARLINK-5837           
1 56346U 23058AF  23130.58334491 -.00920838  00000+0 -11730-1 0  9992
2 56346  97.6646 130.3640 0001472 100.4360 244.5627 15.61778850  1301
STARLINK-5829           
1 56347U 23058AG  23130.58334491 -.00917800  00000+0 -11673-1 0  9994
2 56347  97.6641 130.3647 0001533  98.9128 247.5184 15.61810478  1309
STARLINK-5888           
1 56348U 23058AH  23130.58334491 -.00915060  00000+0 -11643-1 0  9998
2 56348  97.6637 130.3643 0001489  98.2195 247.4982 15.61792692  1300
STARLINK-5887           
1 56349U 23058AJ  23130.58334491 -.00917636  00000+0 -11656-1 0  9994
2 56349  97.6646 130.3654 0001521 100.4511 247.4109 15.61843055  1309
STARLINK-5886           
1 56350U 23058AK  23130.58334491 -.00917671  00000+0 -11664-1 0  9994
2 56350  97.6640 130.3650 0001520  97.8845 249.2685 15.61826459  1307
STARLINK-5891           
1 56351U 23058AL  23130.58334491 -.00917748  00000+0 -11654-1 0  9999
2 56351  97.6639 130.3655 0001529  96.9710 251.2526 15.61850862  1303
STARLINK-5885           
1 56352U 23058AM  23130.58334491 -.00917922  00000+0 -11671-1 0  9993
2 56352  97.6643 130.3648 0001552  97.8279 248.9652 15.61818473  1302
STARLINK-5874           
1 56353U 23058AN  23130.58334491 -.00918035  00000+0 -11625-1 0  9999
2 56353  97.6646 130.3669 0001535  99.4377 252.0104 15.61923754  1304
STARLINK-5877           
1 56354U 23058AP  23130.58334491 -.00917657  00000+0 -11660-1 0  9998
2 56354  97.6645 130.3652 0001508  97.8027 249.7027 15.61834982  1301
STARLINK-5533           
1 56355U 23058AQ  23130.58334491 -.00916407  00000+0 -11621-1 0  9998
2 56355  97.6647 130.3662 0001540 100.6195 249.0300 15.61882483  1306
STARLINK-5535           
1 56356U 23058AR  23130.58334491 -.00917927  00000+0 -11649-1 0  9997
2 56356  97.6642 130.3659 0001552  99.8274 249.1090 15.61867224  1301
STARLINK-5538           
1 56357U 23058AS  23130.58334491 -.00920564  00000+0 -11682-1 0  9996
2 56357  97.6649 130.3661 0001470  99.7099 249.5801 15.61876071  1309
STARLINK-5482           
1 56358U 23058AT  23130.58334491 -.00920673  00000+0 -11691-1 0  9998
2 56358  97.6643 130.3657 0001497  98.4203 250.1622 15.61859350  1301
STARLINK-5551           
1 56359U 23058AU  23130.58334491 -.00921885  00000+0 -11689-1 0  9992
2 56359  97.6654 130.3666 0001485  98.9567 251.4056 15.61901005  1309
STARLINK-5549           
1 56360U 23058AV  23130.58334491 -.00913682  00000+0 -11580-1 0  9990
2 56360  97.6646 130.3663 0001419 103.9164 246.0881 15.61890418  1307
STARLINK-5550           
1 56361U 23058AW  23130.58334491 -.00918297  00000+0 -11632-1 0  9996
2 56361  97.6656 130.3669 0001538  99.3905 251.6858 15.61916288  1308
STARLINK-5972           
1 56362U 23058AX  23130.58334491 -.00918250  00000+0 -11635-1 0  9999
2 56362  97.6644 130.3667 0001522  97.6257 253.0920 15.61908360  1306
